H1 CPF 01  gfz 2022 03 07 13  5662 terrasarx 
H2 0702601  6201 31698    2022 03 07 12 59 42 2022 03 12 00 00 42   120 1 1  0 0 0
H9
10 0 59646  26622.000000  0   -1178708.231   -504290.959  -6774699.722
10 0 59646  26742.000000  0   -2007035.619   -151211.233  -6594549.470
10 0 59646  26862.000000  0   -2794266.949    218625.035  -6299340.791
10 0 59646  26982.000000  0   -3526505.980    597967.936  -5894157.302
10 0 59646  27102.000000  0   -4190911.849    979158.882  -5385990.084
10 0 59646  27222.000000  0   -4775926.049   1354279.941  -4783628.008
10 0 59646  27342.000000  0   -5271479.427   1715314.356  -4097518.338
10 0 59646  27462.000000  0   -5669174.055   2054314.558  -3339594.844
10 0 59646  27582.000000  0   -5962435.800   2363572.824  -2523078.178
10 0 59646  27702.000000  0   -6146634.835   2635792.146  -1662249.839
10 0 59646  27822.000000  0   -6219169.696   2864253.257   -772202.886
10 0 59646  27942.000000  0   -6179512.217   3042973.349    131426.218
10 0 59646  28062.000000  0   -6029210.602   3166851.622   1032739.767
10 0 59646  28182.000000  0   -5771849.345   3231798.261   1915867.233
10 0 59646  28302.000000  0   -5412968.108   3234843.108   2765253.769
10 0 59646  28422.000000  0   -4959941.784   3174221.439   3565942.048
10 0 59646  28542.000000  0   -4421824.497   3049434.049   4303842.585
10 0 59646  28662.000000  0   -3809161.433   2861280.334   4965984.716
10 0 59646  28782.000000  0   -3133775.380   2611864.933   5540744.405
10 0 59646  28902.000000  0   -2408531.467   2304578.018   6018046.888
10 0 59646  29022.000000  0   -1647085.279   1944048.561   6389538.758
10 0 59646  29142.000000  0    -863620.505   1536072.499   6648727.660
10 0 59646  29262.000000  0     -72583.181   1087517.444   6791088.254
10 0 59646  29382.000000  0     711584.083    606205.743   6814136.280
10 0 59646  29502.000000  0    1474704.869    100778.101   6717468.886
10 0 59646  29622.000000  0    2203123.890   -419460.656   6502771.525
10 0 59646  29742.000000  0    2883950.745   -944712.319   6173791.351
10 0 59646  29862.000000  0    3505289.512  -1464868.640   5736276.670
10 0 59646  29982.000000  0    4056450.393  -1969705.578   5197882.076
10 0 59646  30102.000000  0    4528137.842  -2449084.155   4568039.891
10 0 59646  30222.000000  0    4912613.765  -2893155.001   3857801.395
10 0 59646  30342.000000  0    5203832.716  -3292562.897   3079646.537
10 0 59646  30462.000000  0    5397543.946  -3638645.063   2247264.039
10 0 59646  30582.000000  0    5491356.831  -3923619.162   1375308.078
10 0 59646  30702.000000  0    5484769.900  -4140757.242    479135.363
10 0 59646  30822.000000  0    5379161.689  -4284539.284   -425472.592
10 0 59646  30942.000000  0    5177743.641  -4350784.101  -1322596.288
10 0 59646  31062.000000  0    4885475.517  -4336752.361  -2196467.409
10 0 59646  31182.000000  0    4508945.854  -4241220.020  -3031753.410
10 0 59646  31302.000000  0    4056221.419  -4064520.892  -3813831.153
10 0 59646  31422.000000  0    3536669.459  -3808556.972  -4529044.221
10 0 59646  31542.000000  0    2960758.159  -3476777.732  -5164938.643
10 0 59646  31662.000000  0    2339840.268  -3074129.044  -5710472.997
10 0 59646  31782.000000  0    1685926.460  -2606974.607  -6156199.570
10 0 59646  31902.000000  0    1011452.655  -2082992.066  -6494418.333
10 0 59646  32022.000000  0     329043.785  -1511043.096  -6719300.178
10 0 59646  32142.000000  0    -348719.661   -901022.087  -6826976.542
10 0 59646  32262.000000  0   -1009528.204   -263686.730  -6815597.663
10 0 59646  32382.000000  0   -1641561.524    389527.550  -6685360.605
10 0 59646  32502.000000  0   -2233695.130   1046707.531  -6438505.583
10 0 59646  32622.000000  0   -2775691.651   1695673.962  -6079281.623
10 0 59646  32742.000000  0   -3258375.461   2324201.871  -5613881.671
10 0 59646  32862.000000  0   -3673789.117   2920247.792  -5050347.569
10 0 59646  32982.000000  0   -4015329.084   3472180.009  -4398442.547
10 0 59646  33102.000000  0   -4277856.125   3969006.686  -3669491.632
10 0 59646  33222.000000  0   -4457777.337   4400597.692  -2876193.779
10 0 59646  33342.000000  0   -4553100.267   4757895.714  -2032407.059
10 0 59646  33462.000000  0   -4563456.014   5033110.560  -1152909.272
10 0 59646  33582.000000  0   -4490091.161   5219893.392   -253137.913
10 0 59646  33702.000000  0   -4335825.236   5313484.070    651087.173
10 0 59646  33822.000000  0   -4104976.802   5310827.771   1543848.791
10 0 59646  33942.000000  0   -3803258.827   5210657.791   2409423.414
10 0 59646  34062.000000  0   -3437644.566   5013540.331   3232567.454
10 0 59646  34182.000000  0   -3016208.712   4721882.527   3998792.139
10 0 59646  34302.000000  0   -2547949.571   4339904.125   4694622.758
10 0 59646  34422.000000  0   -2042595.230   3873572.466   5307837.630
10 0 59646  34542.000000  0   -1510399.218   3330502.684   5827681.809
10 0 59646  34662.000000  0    -961929.968   2719826.194   6245051.628
10 0 59646  34782.000000  0    -407859.810   2052030.445   6552647.511
10 0 59646  34902.000000  0     141241.902   1338775.323   6745095.154
10 0 59646  35022.000000  0     675110.103    592686.885   6819034.439
10 0 59646  35142.000000  0    1183975.017   -172866.306   6773173.461
10 0 59646  35262.000000  0    1658739.848   -944011.660   6608310.550
10 0 59646  35382.000000  0    2091143.100  -1706623.487   6327321.505
10 0 59646  35502.000000  0    2473902.880  -2446581.032   5935113.454
10 0 59646  35622.000000  0    2800841.637  -3150031.195   5438544.650
10 0 59646  35742.000000  0    3066988.024  -3803650.346   4846310.048
10 0 59646  35862.000000  0    3268654.601  -4394900.617   4168795.044
10 0 59646  35982.000000  0    3403490.515  -4912276.894   3417897.523
10 0 59646  36102.000000  0    3470506.374  -5345537.227   2606820.292
10 0 59646  36222.000000  0    3470071.438  -5685912.549   1749837.779
10 0 59646  36342.000000  0    3403882.101  -5926289.848    862040.680
10 0 59646  36462.000000  0    3274903.097  -6061362.828    -40935.856
10 0 59646  36582.000000  0    3087283.712  -6087749.614   -943194.729
10 0 59646  36702.000000  0    2846248.120  -6004070.839  -1828867.457
10 0 59646  36822.000000  0    2557964.137  -5810986.299  -2682400.512
10 0 59646  36942.000000  0    2229395.133  -5511191.731  -3488835.133
10 0 59646  37062.000000  0    1868136.742  -5109373.981  -4234073.680
10 0 59646  37182.000000  0    1482244.125  -4612125.941  -4905124.286
10 0 59646  37302.000000  0    1080055.873  -4027827.233  -5490321.529
10 0 59646  37422.000000  0     670017.248  -3366493.183  -5979521.236
10 0 59646  37542.000000  0     260506.065  -2639595.212  -6364265.769
10 0 59646  37662.000000  0    -140334.804  -1859857.225  -6637918.772
10 0 59646  37782.000000  0    -524755.015  -1041031.686  -6795768.967
10 0 59646  37902.000000  0    -885541.781   -197658.985  -6835103.021
10 0 59646  38022.000000  0   -1216151.269    655186.267  -6755246.236
10 0 59646  38142.000000  0   -1510824.498   1502157.585  -6557572.276
10 0 59646  38262.000000  0   -1764685.251   2327905.912  -6245481.828
10 0 59646  38382.000000  0   -1973819.838   3117351.376  -5824351.655
10 0 59646  38502.000000  0   -2135337.732   3855956.075  -5301451.729
10 0 59646  38622.000000  0   -2247411.354   4529991.790  -4685831.293
10 0 59646  38742.000000  0   -2309295.127   5126799.510  -3988173.151
10 0 59646  38862.000000  0   -2321321.935   5635033.498  -3220616.751
10 0 59646  38982.000000  0   -2284876.689   6044884.934  -2396554.540
10 0 59646  39102.000000  0   -2202348.044   6348282.359  -1530402.918
10 0 59646  39222.000000  0   -2077059.002   6539060.634   -637349.371
10 0 59646  39342.000000  0   -1913177.492   6613094.823    266915.677
10 0 59646  39462.000000  0   -1715608.997   6568398.247   1166481.236
10 0 59646  39582.000000  0   -1489872.539   6405174.063   2045507.755
10 0 59646  39702.000000  0   -1241963.514   6125820.193   2888515.229
10 0 59646  39822.000000  0    -978208.502   5734891.356   3680662.379
10 0 59646  39942.000000  0    -705115.689   5239019.876   4408012.951
10 0 59646  40062.000000  0    -429223.818   4646794.884   5057786.001
10 0 59646  40182.000000  0    -156951.731   3968601.102   5618579.249
10 0 59646  40302.000000  0     105544.325   3216429.237   6080565.082
10 0 59646  40422.000000  0     352504.218   2403655.376   6435658.855
10 0 59646  40542.000000  0     578685.902   1544797.447   6677653.822
10 0 59646  40662.000000  0     779473.437    655252.090   6802323.929
10 0 59646  40782.000000  0     950968.837   -248982.228   6807491.996
10 0 59646  40902.000000  0    1090066.646  -1151591.590   6693066.276
10 0 59646  41022.000000  0    1194510.039  -2036240.751   6461042.593
10 0 59646  41142.000000  0    1262927.561  -2886868.535   6115472.287
10 0 59646  41262.000000  0    1294849.743  -3687981.398   5662395.695
10 0 59646  41382.000000  0    1290705.056  -4424938.017   5109740.670
10 0 59646  41502.000000  0    1251796.985  -5084220.147   4467190.039
10 0 59646  41622.000000  0    1180261.429  -5653688.348   3746018.715
10 0 59646  41742.000000  0    1079005.169  -6122815.984   2958898.552
10 0 59646  41862.000000  0     951626.578  -6482893.001   2119675.333
10 0 59646  41982.000000  0     802319.349  -6727196.910   1243123.487
10 0 59646  42102.000000  0     635762.887  -6851126.684    344681.438
10 0 59646  42222.000000  0     457001.118  -6852296.184   -559828.895
10 0 59646  42342.000000  0     271312.183  -6730579.791  -1454491.745
10 0 59646  42462.000000  0      84074.713  -6488111.332  -2323586.027
10 0 59646  42582.000000  0     -99366.653  -6129239.176  -3151867.610
10 0 59646  42702.000000  0    -273833.725  -5660438.493  -3924840.964
10 0 59646  42822.000000  0    -434441.858  -5090181.718  -4629014.199
10 0 59646  42942.000000  0    -576718.229  -4428772.029  -5252130.724
10 0 59646  43062.000000  0    -696708.842  -3688145.957  -5783375.557
99
